start=new Date('2022-06-19T00:00:00.000Z').valueOf();
sats=[{"OBJECT_NAME":"STARLINK-4006","EPOCH":"2022-06-16T02:00:01.000224","COUNTRY_CODE":"US","INCLINATION":"53.2170","ARG_OF_PERICENTER":"56.1851","MEAN_ANOMALY":"120.2730","ELEMENT_SET_NO":"999","REV_AT_EPOCH":"130","FILE":"3497002","EPHEMERIS_TYPE":"0","DECAY_DATE":null,"OBJECT_TYPE":"PAYLOAD","TLE_LINE1":"1 52676U 22053W   22167.08334491 -.00695613  00000-0 -10885-1 0  9993","REF_FRAME":"TEME","OBJECT_ID":"2022-053W","ECCENTRICITY":"0.00014730","MEAN_MOTION_DDOT":"0.0000000000000","GP_ID":"206291332","RCS_SIZE":"LARGE","MEAN_MOTION":"15.55551577","BSTAR":"-0.01088500000000","CLASSIFICATION_TYPE":"U","TIME_SYSTEM":"UTC","LAUNCH_DATE":"2022-05-18","PERIOD":"92.572","NORAD_CAT_ID":"52676","SITE":"AFETR","TLE_LINE2":"2 52676  53.2170 156.8757 0001473  56.1851 120.2730 15.55551577  1301","CENTER_NAME":"EARTH","MEAN_ELEMENT_THEORY":"SGP4","APOAPSIS":"401.550","PERIAPSIS":"399.553","SEMIMAJOR_AXIS":"6778.687","MEAN_MOTION_DOT":"-0.00695613","RA_OF_ASC_NODE":"156.8757"},{"ARG_OF_PERICENTER":"18.9584","ELEMENT_SET_NO":"999","MEAN_ANOMALY":"167.5444","OBJECT_NAME":"STARLINK-4028","EPOCH":"2022-06-16T02:00:01.000224","INCLINATION":"53.2144","COUNTRY_CODE":"US","TLE_LINE1":"1 52677U 22053X   22167.08334491 -.00032597  00000-0 -22804-3 0  9996","REF_FRAME":"TEME","REV_AT_EPOCH":"130","OBJECT_TYPE":"PAYLOAD","DECAY_DATE":null,"FILE":"3497002","EPHEMERIS_TYPE":"0","BSTAR":"-0.00022804000000","CLASSIFICATION_TYPE":"U","MEAN_MOTION":"15.73265282","LAUNCH_DATE":"2022-05-18","PERIOD":"91.529","TIME_SYSTEM":"UTC","OBJECT_ID":"2022-053X","RCS_SIZE":"LARGE","GP_ID":"206291230","MEAN_MOTION_DDOT":"0.0000000000000","ECCENTRICITY":"0.00025050","SEMIMAJOR_AXIS":"6727.709","PERIAPSIS":"347.889","RA_OF_ASC_NODE":"156.0385","MEAN_MOTION_DOT":"-0.00032597","SITE":"AFETR","NORAD_CAT_ID":"52677","APOAPSIS":"351.259","MEAN_ELEMENT_THEORY":"SGP4","CENTER_NAME":"EARTH","TLE_LINE2":"2 52677  53.2144 156.0385 0002505  18.9584 167.5444 15.73265282  1309"},{"NORAD_CAT_ID":"52678","SITE":"AFETR","APOAPSIS":"351.388","CENTER_NAME":"EARTH","MEAN_ELEMENT_THEORY":"SGP4","TLE_LINE2":"2 52678  53.2146 156.0430 0002647  16.7251 167.9181 15.73253580  1307","SEMIMAJOR_AXIS":"6727.742","PERIAPSIS":"347.827","RA_OF_ASC_NODE":"156.0430","MEAN_MOTION_DOT":"0.00017851","OBJECT_ID":"2022-053Y","RCS_SIZE":"LARGE","GP_ID":"206291776","MEAN_MOTION_DDOT":"0.0000000000000","ECCENTRICITY":"0.00026470","CLASSIFICATION_TYPE":"U","BSTAR":"0.00013103000000","MEAN_MOTION":"15.73253580","LAUNCH_DATE":"2022-05-18","PERIOD":"91.530","TIME_SYSTEM":"UTC","REV_AT_EPOCH":"130","OBJECT_TYPE":"PAYLOAD","DECAY_DATE":null,"FILE":"3497002","EPHEMERIS_TYPE":"0","TLE_LINE1":"1 52678U 22053Y   22167.08334491  .00017851  00000-0  13103-3 0  9993","REF_FRAME":"TEME","OBJECT_NAME":"STARLINK-4074","EPOCH":"2022-06-16T02:00:01.000224","INCLINATION":"53.2146","COUNTRY_CODE":"US","ARG_OF_PERICENTER":"16.7251","ELEMENT_SET_NO":"999","MEAN_ANOMALY":"167.9181"},{"SITE":"AFETR","NORAD_CAT_ID":"52679","TLE_LINE2":"2 52679  53.2160 156.0361 0002502  19.4568 168.8336 15.73241841  1307","CENTER_NAME":"EARTH","MEAN_ELEMENT_THEORY":"SGP4","APOAPSIS":"351.324","PERIAPSIS":"347.958","SEMIMAJOR_AXIS":"6727.776","MEAN_MOTION_DOT":"0.00029546","RA_OF_ASC_NODE":"156.0361","OBJECT_ID":"2022-053Z","ECCENTRICITY":"0.00025020","GP_ID":"206291476","RCS_SIZE":"LARGE","MEAN_MOTION_DDOT":"0.0000000000000","MEAN_MOTION":"15.73241841","BSTAR":"0.00021380000000","CLASSIFICATION_TYPE":"U","TIME_SYSTEM":"UTC","LAUNCH_DATE":"2022-05-18","PERIOD":"91.531","REV_AT_EPOCH":"130","EPHEMERIS_TYPE":"0","FILE":"3497002","DECAY_DATE":null,"OBJECT_TYPE":"PAYLOAD","TLE_LINE1":"1 52679U 22053Z   22167.08334491  .00029546  00000-0  21380-3 0  9994","REF_FRAME":"TEME","EPOCH":"2022-06-16T02:00:01.000224","OBJECT_NAME":"STARLINK-4031","COUNTRY_CODE":"US","INCLINATION":"53.2160","ARG_OF_PERICENTER":"19.4568","MEAN_ANOMALY":"168.8336","ELEMENT_SET_NO":"999"},{"ELEMENT_SET_NO":"999","MEAN_ANOMALY":"164.6374","ARG_OF_PERICENTER":"21.2530","INCLINATION":"53.2143","COUNTRY_CODE":"US","EPOCH":"2022-06-16T02:00:01.000224","OBJECT_NAME":"STARLINK-3774","REF_FRAME":"TEME","TLE_LINE1":"1 52680U 22053AA  22167.08334491 -.00054996  00000-0 -38879-3 0  9996","OBJECT_TYPE":"PAYLOAD","DECAY_DATE":null,"EPHEMERIS_TYPE":"0","FILE":"3497002","REV_AT_EPOCH":"130","PERIOD":"91.529","LAUNCH_DATE":"2022-05-18","TIME_SYSTEM":"UTC","CLASSIFICATION_TYPE":"U","BSTAR":"-0.00038879000000","MEAN_MOTION":"15.73266987","GP_ID":"206291679","RCS_SIZE":"LARGE","MEAN_MOTION_DDOT":"0.0000000000000","ECCENTRICITY":"0.00025280","OBJECT_ID":"2022-053AA","RA_OF_ASC_NODE":"156.0395","MEAN_MOTION_DOT":"-0.00054996","SEMIMAJOR_AXIS":"6727.704","PERIAPSIS":"347.868","APOAPSIS":"351.270","MEAN_ELEMENT_THEORY":"SGP4","CENTER_NAME":"EARTH","TLE_LINE2":"2 52680  53.2143 156.0395 0002528  21.2530 164.6374 15.73266987  1309","NORAD_CAT_ID":"52680","SITE":"AFETR"},{"GP_ID":"206291576","MEAN_MOTION_DDOT":"0.0000000000000","RCS_SIZE":"LARGE","ECCENTRICITY":"0.00029650","OBJECT_ID":"2022-053AB","PERIOD":"91.530","LAUNCH_DATE":"2022-05-18","TIME_SYSTEM":"UTC","BSTAR":"0.00014616000000","CLASSIFICATION_TYPE":"U","MEAN_MOTION":"15.73253823","MEAN_ELEMENT_THEORY":"SGP4","CENTER_NAME":"EARTH","APOAPSIS":"351.602","TLE_LINE2":"2 52681  53.2144 156.0326 0002965  10.4907 178.3345 15.73253823  1303","SITE":"AFETR","NORAD_CAT_ID":"52681","RA_OF_ASC_NODE":"156.0326","MEAN_MOTION_DOT":"0.00019990","SEMIMAJOR_AXIS":"6727.742","PERIAPSIS":"347.612","INCLINATION":"53.2144","COUNTRY_CODE":"US","OBJECT_NAME":"STARLINK-4068","EPOCH":"2022-06-16T02:00:01.000224","ELEMENT_SET_NO":"999","MEAN_ANOMALY":"178.3345","ARG_OF_PERICENTER":"10.4907","OBJECT_TYPE":"PAYLOAD","FILE":"3497002","EPHEMERIS_TYPE":"0","DECAY_DATE":null,"REV_AT_EPOCH":"130","REF_FRAME":"TEME","TLE_LINE1":"1 52681U 22053AB  22167.08334491  .00019990  00000-0  14616-3 0  9993"},{"OBJECT_TYPE":"PAYLOAD","EPHEMERIS_TYPE":"0","FILE":"3497002","DECAY_DATE":null,"REV_AT_EPOCH":"130","REF_FRAME":"TEME","TLE_LINE1":"1 52682U 22053AC  22167.08334491 -.00062615  00000-0 -44367-3 0  9994","INCLINATION":"53.2146","COUNTRY_CODE":"US","EPOCH":"2022-06-16T02:00:01.000224","OBJECT_NAME":"STARLINK-4017","ELEMENT_SET_NO":"999","MEAN_ANOMALY":"163.0563","ARG_OF_PERICENTER":"24.0349","CENTER_NAME":"EARTH","MEAN_ELEMENT_THEORY":"SGP4","APOAPSIS":"351.376","TLE_LINE2":"2 52682  53.2146 156.0377 0002682  24.0349 163.0563 15.73266073  1303","NORAD_CAT_ID":"52682","SITE":"AFETR","RA_OF_ASC_NODE":"156.0377","MEAN_MOTION_DOT":"-0.00062615","SEMIMAJOR_AXIS":"6727.707","PERIAPSIS":"347.767","GP_ID":"206291842","RCS_SIZE":"LARGE","MEAN_MOTION_DDOT":"0.0000000000000","ECCENTRICITY":"0.00026820","OBJECT_ID":"2022-053AC","LAUNCH_DATE":"2022-05-18","PERIOD":"91.529","TIME_SYSTEM":"UTC","CLASSIFICATION_TYPE":"U","BSTAR":"-0.00044367000000","MEAN_MOTION":"15.73266073"},{"LAUNCH_DATE":"2022-05-18","PERIOD":"91.530","TIME_SYSTEM":"UTC","BSTAR":"0.00016335000000","CLASSIFICATION_TYPE":"U","MEAN_MOTION":"15.73253981","GP_ID":"206291131","RCS_SIZE":"LARGE","MEAN_MOTION_DDOT":"0.0000000000000","ECCENTRICITY":"0.00024690","OBJECT_ID":"2022-053AD","RA_OF_ASC_NODE":"156.0303","MEAN_MOTION_DOT":"0.00022420","SEMIMAJOR_AXIS":"6727.741","PERIAPSIS":"347.945","MEAN_ELEMENT_THEORY":"SGP4","CENTER_NAME":"EARTH","APOAPSIS":"351.267","TLE_LINE2":"2 52683  53.2144 156.0303 0002469  15.6032 174.4069 15.73253981  1300","NORAD_CAT_ID":"52683","SITE":"AFETR","ELEMENT_SET_NO":"999","MEAN_ANOMALY":"174.4069","ARG_OF_PERICENTER":"15.6032","INCLINATION":"53.2144","COUNTRY_CODE":"US","OBJECT_NAME":"STARLINK-4039","EPOCH":"2022-06-16T02:00:01.000224","REF_FRAME":"TEME","TLE_LINE1":"1 52683U 22053AD  22167.08334491  .00022420  00000-0  16335-3 0  9997","OBJECT_TYPE":"PAYLOAD","EPHEMERIS_TYPE":"0","FILE":"3497002","DECAY_DATE":null,"REV_AT_EPOCH":"130"},{"TLE_LINE2":"2 52684  53.2144 156.0356 0002560  18.0468 169.6581 15.73251717  1301","CENTER_NAME":"EARTH","MEAN_ELEMENT_THEORY":"SGP4","APOAPSIS":"351.335","NORAD_CAT_ID":"52684","SITE":"AFETR","MEAN_MOTION_DOT":"-0.00007637","RA_OF_ASC_NODE":"156.0356","PERIAPSIS":"347.890","SEMIMAJOR_AXIS":"6727.748","ECCENTRICITY":"0.00025600","RCS_SIZE":"LARGE","GP_ID":"206291333","MEAN_MOTION_DDOT":"0.0000000000000","OBJECT_ID":"2022-053AE","TIME_SYSTEM":"UTC","LAUNCH_DATE":"2022-05-18","PERIOD":"91.530","MEAN_MOTION":"15.73251717","BSTAR":"-0.00004990700000","CLASSIFICATION_TYPE":"U","EPHEMERIS_TYPE":"0","FILE":"3497002","DECAY_DATE":null,"OBJECT_TYPE":"PAYLOAD","REV_AT_EPOCH":"130","REF_FRAME":"TEME","TLE_LINE1":"1 52684U 22053AE  22167.08334491 -.00007637  00000-0 -49907-4 0  9995","COUNTRY_CODE":"US","INCLINATION":"53.2144","OBJECT_NAME":"STARLINK-4014","EPOCH":"2022-06-16T02:00:01.000224","MEAN_ANOMALY":"169.6581","ELEMENT_SET_NO":"999","ARG_OF_PERICENTER":"18.0468"},{"OBJECT_TYPE":"PAYLOAD","FILE":"3497002","EPHEMERIS_TYPE":"0","DECAY_DATE":null,"REV_AT_EPOCH":"130","REF_FRAME":"TEME","TLE_LINE1":"1 52685U 22053AF  22167.08334491 -.00038774  00000-0 -27242-3 0  9999","INCLINATION":"53.2162","COUNTRY_CODE":"US","OBJECT_NAME":"STARLINK-4029","EPOCH":"2022-06-16T02:00:01.000224","ELEMENT_SET_NO":"999","MEAN_ANOMALY":"169.3916","ARG_OF_PERICENTER":"22.4628","CENTER_NAME":"EARTH","MEAN_ELEMENT_THEORY":"SGP4","APOAPSIS":"351.218","TLE_LINE2":"2 52685  53.2162 156.0269 0002400  22.4628 169.3916 15.73254861  1307","SITE":"AFETR","NORAD_CAT_ID":"52685","RA_OF_ASC_NODE":"156.0269","MEAN_MOTION_DOT":"-0.00038774","SEMIMAJOR_AXIS":"6727.739","PERIAPSIS":"347.989","MEAN_MOTION_DDOT":"0.0000000000000","GP_ID":"206291231","RCS_SIZE":"LARGE","ECCENTRICITY":"0.00024000","OBJECT_ID":"2022-053AF","PERIOD":"91.530","LAUNCH_DATE":"2022-05-18","TIME_SYSTEM":"UTC","BSTAR":"-0.00027242000000","CLASSIFICATION_TYPE":"U","MEAN_MOTION":"15.73254861"}];
